OBJECT_NAME,OBJECT_ID,EPOCH,MEAN_MOTION,ECCENTRICITY,INCLINATION,RA_OF_ASC_NODE,ARG_OF_PERICENTER,MEAN_ANOMALY,EPHEMERIS_TYPE,CLASSIFICATION_TYPE,NORAD_CAT_ID,ELEMENT_SET_NO,REV_AT_EPOCH,BSTAR,MEAN_MOTION_DOT,MEAN_MOTION_DDOT
STARLINK-4251,2022-077AS,2024-10-19T09:59:20.423904,15.01300212,0.0001235,97.6544,112.4711,100.4439,259.6924,0,U,53083,999,12554,1.29E-04,1.60E-05,0
STARLINK-4319,2022-077AT,2024-10-19T00:39:28.851264,15.01245722,0.000201,97.6545,112.0936,73.3305,286.814,0,U,53084,999,12548,-6.68E-05,-9.16E-06,0
STARLINK-4324,2022-077AU,2024-10-19T10:07:40.778400,15.01263444,0.0001523,97.6551,112.4826,89.0527,271.0872,0,U,53085,999,12554,7.01E-05,8.41E-06,0
STARLINK-4318,2022-077AV,2024-10-19T10:12:39.495168,15.01267659,0.0001914,97.6546,112.4845,86.2511,273.8932,0,U,53086,999,12554,1.02E-04,1.25E-05,0
STARLINK-4329,2022-077AW,2024-10-19T10:09:59.686272,15.01266114,0.0001545,97.6553,112.4733,86.445,273.6951,0,U,53087,999,12554,9.33E-05,1.14E-05,0
STARLINK-4333,2022-077AX,2024-10-18T22:55:28.470432,15.01263415,0.0001629,97.655,112.0188,88.9604,271.1807,0,U,53088,999,12489,3.92E-05,4.45E-06,0
STARLINK-4063,2022-083A,2024-10-19T09:27:59.264352,15.08846223,0.0001504,53.218,286.9675,102.2232,257.8929,0,U,53132,999,12541,9.38E-05,1.21E-05,0
STARLINK-4154,2022-083B,2024-10-18T16:35:51.518400,15.0883708,0.0001513,53.2167,290.1992,91.9244,268.1922,0,U,53133,999,12466,2.40E-05,9.40E-07,0
STARLINK-4150,2022-083C,2024-10-19T03:17:02.906016,15.08844756,0.0001463,53.217,288.1241,96.5673,263.5485,0,U,53134,999,12537,1.47E-04,2.06E-05,0
STARLINK-4023,2022-083D,2024-10-19T06:38:24.853920,15.08856649,0.0001596,53.2174,287.4961,94.7807,265.3368,0,U,53135,999,12539,2.43E-04,3.58E-05,0
STARLINK-4152,2022-083E,2024-10-19T06:33:06.561504,15.08856207,0.0001454,53.2178,287.5122,88.1693,271.9466,0,U,53136,999,12539,9.45E-05,1.22E-05,0
STARLINK-4145,2022-083F,2024-10-19T09:33:16.881984,15.08848297,0.0001463,53.2174,286.9504,90.5696,269.5463,0,U,53137,999,12541,1.39E-04,1.92E-05,0
STARLINK-4141,2022-083G,2024-10-19T03:09:47.569248,15.08842659,0.0001586,53.2183,283.3273,99.6536,260.4636,0,U,53138,999,12543,8.21E-05,1.02E-05,0
STARLINK-4185,2022-083H,2024-10-19T06:06:37.408032,15.08848326,0.0001469,53.2177,287.5955,87.8045,272.3115,0,U,53139,999,12539,9.65E-05,1.25E-05,0
STARLINK-4170,2022-083J,2024-10-19T06:11:55.435200,15.08848579,0.0001476,53.2169,287.5774,90.6791,269.437,0,U,53140,999,12539,2.59E-04,3.85E-05,0
STARLINK-4103,2022-083K,2024-10-19T04:10:02.691264,15.08847787,0.000135,53.2164,287.9591,92.4212,267.6935,0,U,53141,999,12538,6.05E-04,9.35E-05,0
STARLINK-4101,2022-083L,2024-10-18T17:14:18.454560,15.08853644,0.0001443,53.218,289.973,91.3266,268.7891,0,U,53142,999,12469,-1.92E-05,-5.93E-06,0
STARLINK-4102,2022-083M,2024-10-19T04:04:45.744096,15.08833575,0.000163,53.2179,287.9741,102.0523,258.0652,0,U,53143,999,12538,6.10E-05,6.82E-06,0
STARLINK-4100,2022-083N,2024-10-19T04:20:38.126112,15.08847528,0.0001496,53.2175,287.9342,89.1392,270.9772,0,U,53144,999,12538,1.29E-04,1.77E-05,0
STARLINK-4106,2022-083P,2024-10-19T03:54:08.675424,15.08843346,0.0001317,53.2167,288.0076,95.7059,264.4083,0,U,53145,999,12538,1.17E-04,1.58E-05,0
STARLINK-4099,2022-083Q,2024-10-19T04:15:20.586240,15.08846605,0.0001468,53.217,287.9399,86.6218,273.4942,0,U,53146,999,12538,1.00E-04,1.31E-05,0
STARLINK-4094,2022-083R,2024-10-19T03:48:50.492736,15.08831161,0.0001314,53.2163,288.0249,88.5599,271.5544,0,U,53147,999,12538,1.19E-04,1.61E-05,0
STARLINK-4021,2022-083T,2024-10-19T06:04:03.532224,15.08854294,0.0001384,53.2161,277.8063,93.1277,266.9874,0,U,53149,999,12553,3.07E-04,4.61E-05,0
STARLINK-4038,2022-083U,2024-10-19T03:23:40.531776,15.08844041,0.0001502,53.2177,278.1072,102.1084,258.0077,0,U,53150,999,12551,8.11E-05,1.00E-05,0
