STARLINK-4251           
1 53083U 22077AS  24293.41620861  .00001595  00000+0  12862-3 0  9996
2 53083  97.6544 112.4711 0001235 100.4439 259.6924 15.01300212125544
STARLINK-4319           
1 53084U 22077AT  24293.02741726 -.00000916  00000+0 -66787-4 0  9992
2 53084  97.6545 112.0936 0002010  73.3305 286.8140 15.01245722125482
STARLINK-4324           
1 53085U 22077AU  24293.42199975  .00000841  00000+0  70070-4 0  9995
2 53085  97.6551 112.4826 0001523  89.0527 271.0872 15.01263444125546
STARLINK-4318           
1 53086U 22077AV  24293.42545712  .00001246  00000+0  10157-3 0  9999
2 53086  97.6546 112.4845 0001914  86.2511 273.8932 15.01267659125547
STARLINK-4329           
1 53087U 22077AW  24293.42360748  .00001139  00000+0  93251-4 0  9992
2 53087  97.6553 112.4733 0001545  86.4450 273.6951 15.01266114125540
STARLINK-4333           
1 53088U 22077AX  24292.95519063  .00000445  00000+0  39238-4 0  9990
2 53088  97.6550 112.0188 0001629  88.9604 271.1807 15.01263415124890
STARLINK-4063           
1 53132U 22083A   24293.39443593  .00001205  00000+0  93806-4 0  9996
2 53132  53.2180 286.9675 0001504 102.2232 257.8929 15.08846223125414
STARLINK-4154           
1 53133U 22083B   24292.69156850  .00000094  00000+0  24002-4 0  9993
2 53133  53.2167 290.1992 0001513  91.9244 268.1922 15.08837080124661
STARLINK-4150           
1 53134U 22083C   24293.13683919  .00002056  00000+0  14721-3 0  9991
2 53134  53.2170 288.1241 0001463  96.5673 263.5485 15.08844756125371
STARLINK-4023           
1 53135U 22083D   24293.27667655  .00003578  00000+0  24267-3 0  9992
2 53135  53.2174 287.4961 0001596  94.7807 265.3368 15.08856649125399
STARLINK-4152           
1 53136U 22083E   24293.27299261  .00001217  00000+0  94534-4 0  9990
2 53136  53.2178 287.5122 0001454  88.1693 271.9466 15.08856207125399
STARLINK-4145           
1 53137U 22083F   24293.39811206  .00001918  00000+0  13854-3 0  9996
2 53137  53.2174 286.9504 0001463  90.5696 269.5463 15.08848297125416
STARLINK-4141           
1 53138U 22083G   24293.13180057  .00001019  00000+0  82108-4 0  9993
2 53138  53.2183 283.3273 0001586  99.6536 260.4636 15.08842659125430
STARLINK-4185           
1 53139U 22083H   24293.25459963  .00001248  00000+0  96470-4 0  9993
2 53139  53.2177 287.5955 0001469  87.8045 272.3115 15.08848326125397
STARLINK-4170           
1 53140U 22083J   24293.25828050  .00003845  00000+0  25949-3 0  9999
2 53140  53.2169 287.5774 0001476  90.6791 269.4370 15.08848579125397
STARLINK-4103           
1 53141U 22083K   24293.17364226  .00009350  00000+0  60461-3 0  9996
2 53141  53.2164 287.9591 0001350  92.4212 267.6935 15.08847787125389
STARLINK-4101           
1 53142U 22083L   24292.71826915 -.00000593  00000+0 -19150-4 0  9996
2 53142  53.2180 289.9730 0001443  91.3266 268.7891 15.08853644124690
STARLINK-4102           
1 53143U 22083M   24293.16997389  .00000682  00000+0  60962-4 0  9995
2 53143  53.2179 287.9741 0001630 102.0523 258.0652 15.08833575125388
STARLINK-4100           
1 53144U 22083N   24293.18099683  .00001774  00000+0  12949-3 0  9992
2 53144  53.2175 287.9342 0001496  89.1392 270.9772 15.08847528125380
STARLINK-4106           
1 53145U 22083P   24293.16260041  .00001580  00000+0  11734-3 0  9995
2 53145  53.2167 288.0076 0001317  95.7059 264.4083 15.08843346125380
STARLINK-4099           
1 53146U 22083Q   24293.17732160  .00001311  00000+0  10044-3 0  9998
2 53146  53.2170 287.9399 0001468  86.6218 273.4942 15.08846605125389
STARLINK-4094           
1 53147U 22083R   24293.15891774  .00001612  00000+0  11936-3 0  9999
2 53147  53.2163 288.0249 0001314  88.5599 271.5544 15.08831161125389
STARLINK-4021           
1 53149U 22083T   24293.25281866  .00004607  00000+0  30723-3 0  9999
2 53149  53.2161 277.8063 0001384  93.1277 266.9874 15.08854294125534
STARLINK-4038           
1 53150U 22083U   24293.14144134  .00001004  00000+0  81138-4 0  9990
2 53150  53.2177 278.1072 0001502 102.1084 258.0077 15.08844041125510
